{"fetched_at":"2026-03-29T02:12:04Z","count":15717,"tles":[{"name":"STARLINK-33950","line1":"1 63701U 25087E   26087.53980962  .00022899  00000+0  78296-3 0  9998","line2":"2 63701  53.1582 132.1450 0001254  83.2476 276.8668 15.30196255 52086","category":"Starlink"}]}